CCSDS_OMM_VERS = 2.0
CREATION_DATE  = 
ORIGINATOR     = 

OBJECT_NAME    = UNKNOWN
OBJECT_ID      = 
CENTER_NAME    = EARTH
REF_FRAME      = TEME
TIME_SYSTEM    = UTC
MEAN_ELEMENT_THEORY = SGP/SGP4

EPOCH          = 2025-11-26T09:52:27.181344
MEAN_MOTION    = 13.82620148
ECCENTRICITY   = .0173254
INCLINATION    = 99.0841
RA_OF_ASC_NODE = 127.3123
ARG_OF_PERICENTER = 337.0575
MEAN_ANOMALY   = 52.2163

EPHEMERIS_TYPE = 0
CLASSIFICATION_TYPE = U
NORAD_CAT_ID   = 82739
ELEMENT_SET_NO = 999
REV_AT_EPOCH   = 60385
BSTAR          = .17332E-2
MEAN_MOTION_DOT = .2068E-4
MEAN_MOTION_DDOT = 0

CCSDS_OMM_VERS = 2.0
CREATION_DATE  = 
ORIGINATOR     = 

OBJECT_NAME    = UNKNOWN
OBJECT_ID      = 
CENTER_NAME    = EARTH
REF_FRAME      = TEME
TIME_SYSTEM    = UTC
MEAN_ELEMENT_THEORY = SGP/SGP4

EPOCH          = 2025-11-26T07:09:09.513792
MEAN_MOTION    = 13.65908608
ECCENTRICITY   = .0200905
INCLINATION    = 102.8470
RA_OF_ASC_NODE = 0.4539
ARG_OF_PERICENTER = 302.2960
MEAN_ANOMALY   = 55.8850

EPHEMERIS_TYPE = 0
CLASSIFICATION_TYPE = U
NORAD_CAT_ID   = 82741
ELEMENT_SET_NO = 999
REV_AT_EPOCH   = 59483
BSTAR          = .29107E-2
MEAN_MOTION_DOT = .2675E-4
MEAN_MOTION_DDOT = 0

CCSDS_OMM_VERS = 2.0
CREATION_DATE  = 
ORIGINATOR     = 

OBJECT_NAME    = UNKNOWN
OBJECT_ID      = 
CENTER_NAME    = EARTH
REF_FRAME      = TEME
TIME_SYSTEM    = UTC
MEAN_ELEMENT_THEORY = SGP/SGP4

EPOCH          = 2025-11-25T03:09:04.482432
MEAN_MOTION    = 13.08985067
ECCENTRICITY   = .0026737
INCLINATION    = 90.3403
RA_OF_ASC_NODE = 37.6146
ARG_OF_PERICENTER = 160.6414
MEAN_ANOMALY   = 199.5735

EPHEMERIS_TYPE = 0
CLASSIFICATION_TYPE = U
NORAD_CAT_ID   = 82783
ELEMENT_SET_NO = 999
REV_AT_EPOCH   = 50205
BSTAR          = .19363E-2
MEAN_MOTION_DOT = .671E-5
MEAN_MOTION_DDOT = 0

CCSDS_OMM_VERS = 2.0
CREATION_DATE  = 
ORIGINATOR     = 

OBJECT_NAME    = UNKNOWN
OBJECT_ID      = 
CENTER_NAME    = EARTH
REF_FRAME      = TEME
TIME_SYSTEM    = UTC
MEAN_ELEMENT_THEORY = SGP/SGP4

EPOCH          = 2025-11-26T10:27:52.564320
MEAN_MOTION    = 14.22807053
ECCENTRICITY   = .0028245
INCLINATION    = 82.9514
RA_OF_ASC_NODE = 204.8527
ARG_OF_PERICENTER = 222.1180
MEAN_ANOMALY   = 315.5182

EPHEMERIS_TYPE = 0
CLASSIFICATION_TYPE = U
NORAD_CAT_ID   = 82798
ELEMENT_SET_NO = 999
REV_AT_EPOCH   = 31005
BSTAR          = .10999E-2
MEAN_MOTION_DOT = .2493E-4
MEAN_MOTION_DDOT = 0

CCSDS_OMM_VERS = 2.0
CREATION_DATE  = 
ORIGINATOR     = 

OBJECT_NAME    = UNKNOWN
OBJECT_ID      = 
CENTER_NAME    = EARTH
REF_FRAME      = TEME
TIME_SYSTEM    = UTC
MEAN_ELEMENT_THEORY = SGP/SGP4

EPOCH          = 2025-11-24T16:30:03.068928
MEAN_MOTION    = 14.34749624
ECCENTRICITY   = .0048851
INCLINATION    = 99.7886
RA_OF_ASC_NODE = 127.0476
ARG_OF_PERICENTER = 67.1891
MEAN_ANOMALY   = 293.4439

EPHEMERIS_TYPE = 0
CLASSIFICATION_TYPE = U
NORAD_CAT_ID   = 82820
ELEMENT_SET_NO = 999
REV_AT_EPOCH   = 62304
BSTAR          = .13613E-2
MEAN_MOTION_DOT = .3858E-4
MEAN_MOTION_DDOT = 0

CCSDS_OMM_VERS = 2.0
CREATION_DATE  = 
ORIGINATOR     = 

OBJECT_NAME    = UNKNOWN
OBJECT_ID      = 
CENTER_NAME    = EARTH
REF_FRAME      = TEME
TIME_SYSTEM    = UTC
MEAN_ELEMENT_THEORY = SGP/SGP4

EPOCH          = 2025-10-31T12:06:51.685632
MEAN_MOTION    = 11.29112830
ECCENTRICITY   = .0168315
INCLINATION    = 65.0944
RA_OF_ASC_NODE = 126.2556
ARG_OF_PERICENTER = 345.0925
MEAN_ANOMALY   = 42.7807

EPHEMERIS_TYPE = 0
CLASSIFICATION_TYPE = U
NORAD_CAT_ID   = 82829
ELEMENT_SET_NO = 999
REV_AT_EPOCH   = 48131
BSTAR          = .21351E-2
MEAN_MOTION_DOT = .35E-6
MEAN_MOTION_DDOT = 0

CCSDS_OMM_VERS = 2.0
CREATION_DATE  = 
ORIGINATOR     = 

OBJECT_NAME    = UNKNOWN
OBJECT_ID      = 
CENTER_NAME    = EARTH
REF_FRAME      = TEME
TIME_SYSTEM    = UTC
MEAN_ELEMENT_THEORY = SGP/SGP4

EPOCH          = 2025-11-26T00:37:13.244736
MEAN_MOTION    = 13.87690285
ECCENTRICITY   = .0125827
INCLINATION    = 82.6889
RA_OF_ASC_NODE = 77.7115
ARG_OF_PERICENTER = 327.6078
MEAN_ANOMALY   = 31.7402

EPHEMERIS_TYPE = 0
CLASSIFICATION_TYPE = U
NORAD_CAT_ID   = 82854
ELEMENT_SET_NO = 999
REV_AT_EPOCH   = 60548
BSTAR          = .18533E-2
MEAN_MOTION_DOT = .235E-4
MEAN_MOTION_DDOT = 0

CCSDS_OMM_VERS = 2.0
CREATION_DATE  = 
ORIGINATOR     = 

OBJECT_NAME    = UNKNOWN
OBJECT_ID      = 
CENTER_NAME    = EARTH
REF_FRAME      = TEME
TIME_SYSTEM    = UTC
MEAN_ELEMENT_THEORY = SGP/SGP4

EPOCH          = 2025-11-26T04:09:24.408288
MEAN_MOTION    = 14.24230130
ECCENTRICITY   = .0041257
INCLINATION    = 99.9947
RA_OF_ASC_NODE = 222.0826
ARG_OF_PERICENTER = 330.7580
MEAN_ANOMALY   = 29.1286

EPHEMERIS_TYPE = 0
CLASSIFICATION_TYPE = U
NORAD_CAT_ID   = 82873
ELEMENT_SET_NO = 999
REV_AT_EPOCH   = 61887
BSTAR          = .20553E-2
MEAN_MOTION_DOT = .473E-4
MEAN_MOTION_DDOT = 0

CCSDS_OMM_VERS = 2.0
CREATION_DATE  = 
ORIGINATOR     = 

OBJECT_NAME    = UNKNOWN
OBJECT_ID      = 
CENTER_NAME    = EARTH
REF_FRAME      = TEME
TIME_SYSTEM    = UTC
MEAN_ELEMENT_THEORY = SGP/SGP4

EPOCH          = 2025-11-26T05:07:04.582272
MEAN_MOTION    = 14.15096539
ECCENTRICITY   = .0377445
INCLINATION    = 98.6719
RA_OF_ASC_NODE = 313.9647
ARG_OF_PERICENTER = 330.6409
MEAN_ANOMALY   = 27.4020

EPHEMERIS_TYPE = 0
CLASSIFICATION_TYPE = U
NORAD_CAT_ID   = 82875
ELEMENT_SET_NO = 999
REV_AT_EPOCH   = 54213
BSTAR          = .43347E-3
MEAN_MOTION_DOT = .1625E-4
MEAN_MOTION_DDOT = 0

CCSDS_OMM_VERS = 2.0
CREATION_DATE  = 
ORIGINATOR     = 

OBJECT_NAME    = UNKNOWN
OBJECT_ID      = 
CENTER_NAME    = EARTH
REF_FRAME      = TEME
TIME_SYSTEM    = UTC
MEAN_ELEMENT_THEORY = SGP/SGP4

EPOCH          = 2025-11-22T02:58:40.208736
MEAN_MOTION    = 14.31133178
ECCENTRICITY   = .002482
INCLINATION    = 98.9640
RA_OF_ASC_NODE = 80.5609
ARG_OF_PERICENTER = 109.2648
MEAN_ANOMALY   = 251.1222

EPHEMERIS_TYPE = 0
CLASSIFICATION_TYPE = U
NORAD_CAT_ID   = 82893
ELEMENT_SET_NO = 999
REV_AT_EPOCH   = 42102
BSTAR          = .40656E-2
MEAN_MOTION_DOT = .1073E-3
MEAN_MOTION_DDOT = 0

CCSDS_OMM_VERS = 2.0
CREATION_DATE  = 
ORIGINATOR     = 

OBJECT_NAME    = UNKNOWN
OBJECT_ID      = 
CENTER_NAME    = EARTH
REF_FRAME      = TEME
TIME_SYSTEM    = UTC
MEAN_ELEMENT_THEORY = SGP/SGP4

EPOCH          = 2025-11-26T09:12:59.744448
MEAN_MOTION    = 13.27527729
ECCENTRICITY   = .0777383
INCLINATION    = 65.8357
RA_OF_ASC_NODE = 211.9692
ARG_OF_PERICENTER = 276.2703
MEAN_ANOMALY   = 75.0423

EPHEMERIS_TYPE = 0
CLASSIFICATION_TYPE = U
NORAD_CAT_ID   = 82912
ELEMENT_SET_NO = 999
REV_AT_EPOCH   = 57715
BSTAR          = .17263E-2
MEAN_MOTION_DOT = .4199E-4
MEAN_MOTION_DDOT = 0

CCSDS_OMM_VERS = 2.0
CREATION_DATE  = 
ORIGINATOR     = 

OBJECT_NAME    = UNKNOWN
OBJECT_ID      = 
CENTER_NAME    = EARTH
REF_FRAME      = TEME
TIME_SYSTEM    = UTC
MEAN_ELEMENT_THEORY = SGP/SGP4

EPOCH          = 2025-11-23T09:38:51.429696
MEAN_MOTION    = 13.22819895
ECCENTRICITY   = .0375024
INCLINATION    = 99.9197
RA_OF_ASC_NODE = 122.8804
ARG_OF_PERICENTER = 51.2425
MEAN_ANOMALY   = 312.1584

EPHEMERIS_TYPE = 0
CLASSIFICATION_TYPE = U
NORAD_CAT_ID   = 82961
ELEMENT_SET_NO = 999
REV_AT_EPOCH   = 55315
BSTAR          = .15071E-1
MEAN_MOTION_DOT = .9143E-4
MEAN_MOTION_DDOT = 0

